BEIDOU-2 IGSO-1 (C06)   
1 36828U 10036A   25063.73135995 -.00000127  00000+0  00000+0 0  9994
2 36828  54.2682 167.2084 0045409 210.0415 154.1381  1.00254869 53397
BEIDOU-2 G4 (C04)       
1 37210U 10057A   25063.78866255 -.00000118  00000+0  00000+0 0  9998
2 37210   2.4813  70.4417 0007763 204.8732 331.3863  1.00271488 52583
BEIDOU-2 IGSO-2 (C07)   
1 37256U 10068A   25062.29452736 -.00000179  00000+0  00000+0 0  9997
2 37256  48.3992 277.6444 0038958 211.7588 246.1598  1.00269015 52061
BEIDOU-2 IGSO-3 (C08)   
1 37384U 11013A   25063.71588891 -.00000169  00000+0  00000+0 0  9999
2 37384  61.7438  44.6017 0030651 184.1804 298.3754  1.00291866 50959
BEIDOU-2 IGSO-4 (C09)   
1 37763U 11038A   25063.73359606 -.00000079  00000+0  00000+0 0  9999
2 37763  54.5726 169.8708 0135815 229.3440 120.3400  1.00253307 49939
BEIDOU-2 IGSO-5 (C10)   
1 37948U 11073A   25063.05322506 -.00000123  00000+0  00000+0 0  9997
2 37948  48.5342 277.3349 0100940 219.5954 140.6551  1.00272366 48420
BEIDOU-2 G5 (C05)       
1 38091U 12008A   25064.19836510  .00000051  00000+0  00000+0 0  9996
2 38091   2.4040  71.2472 0013386 249.3913 332.6448  1.00269725 47775
BEIDOU-2 M3 (C11)       
1 38250U 12018A   25063.35393678 -.00000072  00000+0  00000+0 0  9998
2 38250  56.1474 320.6609 0022175 273.6243  86.1712  1.86233539 87546
BEIDOU-2 M4 (C12)       
1 38251U 12018B   25063.82216199 -.00000073  00000+0  00000+0 0  9994
2 38251  56.0512 319.8968 0013194 280.0767  79.8224  1.86231993 87203
BEIDOU-2 M6 (C14)       
1 38775U 12050B   25063.53204547 -.00000008  00000+0  00000+0 0  9991
2 38775  56.1309  78.4732 0014000 334.9092  25.0618  1.86230892 84566
BEIDOU-2 G6 (C02)       
1 38953U 12059A   25063.69295868 -.00000179  00000+0  00000+0 0  9990
2 38953   3.2254  78.3151 0010332 298.3046 119.4476  1.00267892 45200
BEIDOU-3S IGSO-1S (C31) 
1 40549U 15019A   25063.62004080 -.00000134  00000+0  00000+0 0  9991
2 40549  50.0809 301.0968 0033880 194.9912 340.0224  1.00247073 36367
BEIDOU-3S M2S (C58)     
1 40748U 15037A   25064.02408566 -.00000072  00000+0  00000+0 0  9995
2 40748  55.2753 318.1467 0009351 271.4139  88.5266  1.86229063 65381
BEIDOU-3S M1S (C57)     
1 40749U 15037B   25063.21789086 -.00000068  00000+0  00000+0 0  9990
2 40749  55.2726 318.1673 0004497   9.8060 350.2528  1.86253616 65373
BEIDOU-3S IGSO-2S (C56) 
1 40938U 15053A   25043.08725264 -.00000066  00000+0  00000+0 0  9997
2 40938  49.9805 264.5883 0052128 186.8108 174.8851  1.00251841 34448
BEIDOU-2 IGSO-6 (C13)   
1 41434U 16021A   25064.31817803 -.00000146  00000+0  00000+0 0  9994
2 41434  59.5669  42.7160 0053705 230.2672 100.4591  1.00263503 32779
BEIDOU-2 G7 (C03)       
1 41586U 16037A   25063.86016979 -.00000359  00000+0  00000+0 0  9999
2 41586   1.5098  67.3881 0010283 332.0919 183.5821  1.00272747  2182
BEIDOU-3 M1 (C19)       
1 43001U 17069A   25063.29781324 -.00000006  00000+0  00000+0 0  9998
2 43001  56.2800  78.6108 0012294 303.3714  56.5510  1.86231011 49851
BEIDOU-3 M2 (C20)       
1 43002U 17069B   25063.23555720 -.00000006  00000+0  00000+0 0  9992
2 43002  56.2792  78.6493 0009684 322.0756  37.8965  1.86230822 49846
BEIDOU-3 M7 (C27)       
1 43107U 18003A   25064.05620496 -.00000073  00000+0  00000+0 0  9995
2 43107  54.7339 318.6217 0004521  61.7684 298.3239  1.86232276 48623
BEIDOU-3 M8 (C28)       
1 43108U 18003B   25060.24012348 -.00000051  00000+0  00000+0 0  9990
2 43108  54.7300 318.7383 0003472 285.8667  74.1526  1.86230763 48551
BEIDOU-3 M4 (C22)       
1 43207U 18018A   25063.36596972 -.00000007  00000+0  00000+0 0  9993
2 43207  56.2390  78.6887 0006664 342.1800  17.8366  1.86230925 47993
BEIDOU-3 M3 (C21)       
1 43208U 18018B   25062.35859754  .00000000  00000+0  00000+0 0  9994
2 43208  56.2375  78.7264 0009826 312.6179  47.3437  1.86231025 47978
BEIDOU-3 M9 (C29)       
1 43245U 18029A   25063.11450806 -.00000065  00000+0  00000+0 0  9999
2 43245  54.6098 316.3363 0001073 340.9416  19.1052  1.86232318 47143
BEIDOU-3 M10 (C30)      
1 43246U 18029B   25064.11906919 -.00000069  00000+0  00000+0 0  9996
2 43246  54.6066 316.3288 0005045  13.1254 346.9354  1.86228850 47150
BEIDOU-2 IGSO-7 (C16)   
1 43539U 18057A   25063.69724772 -.00000139  00000+0  00000+0 0  9997
2 43539  55.1589 167.1306 0085509 234.9194 123.7049  1.00288418 24411
BEIDOU-3 M5 (C23)       
1 43581U 18062A   25061.12281831  .00000042  00000+0  00000+0 0  9992
2 43581  54.1094 198.3540 0001629 306.5389  53.4001  1.86228382 44841
BEIDOU-3 M6 (C24)       
1 43582U 18062B   25063.67211882  .00000043  00000+0  00000+0 0  9995
2 43582  54.1087 198.2565 0006020  41.9456 318.0651  1.86229195 44894
BEIDOU-3 M12 (C26)      
1 43602U 18067A   25060.38520561  .00000037  00000+0  00000+0 0  9998
2 43602  54.2014 197.0734 0008125  36.0447 323.9618  1.86227695 44314
BEIDOU-3 M11 (C25)      
1 43603U 18067B   25060.51895043  .00000038  00000+0  00000+0 0  9995
2 43603  54.1986 197.0335 0004663  31.0104 328.9696  1.86227159 44346
BEIDOU-3 M13 (C32)      
1 43622U 18072A   25063.16363823 -.00000006  00000+0  00000+0 0  9998
2 43622  56.2109  78.2195 0008862 300.9060  59.0468  1.86231067 43908
BEIDOU-3 M14 (C33)      
1 43623U 18072B   25063.56607060 -.00000008  00000+0  00000+0 0  9999
2 43623  56.2132  78.1996 0006325 320.5796  39.4129  1.86231040 43906
BEIDOU-3 M16 (C35)      
1 43647U 18078A   25063.18996538 -.00000066  00000+0  00000+0 0  9994
2 43647  54.5065 316.4107 0008218  21.0696 339.0147  1.86232137 43407
BEIDOU-3 M15 (C34)      
1 43648U 18078B   25063.31918986 -.00000067  00000+0  00000+0 0  9992
2 43648  54.5021 316.4082 0005141  27.4663 332.6108  1.86232020 43427
BEIDOU-3 G1 (C59)       
1 43683U 18085A   25063.78466604 -.00000284  00000+0  00000+0 0  9996
2 43683   2.8419 100.9028 0002593 355.9476 128.4301  1.00271800 23359
BEIDOU-3 M17 (C36)      
1 43706U 18093A   25063.47300303  .00000045  00000+0  00000+0 0  9994
2 43706  54.1923 198.2317 0006791 291.0075  68.8841  1.86228096 42793
BEIDOU-3 M18 (C37)      
1 43707U 18093B   25063.33622978  .00000045  00000+0  00000+0 0  9995
2 43707  54.1931 198.2281 0005765 332.9696  26.9642  1.86229549 42784
BEIDOU-3 IGSO-1 (C38)   
1 44204U 19023A   25063.84504043 -.00000206  00000+0  00000+0 0  9990
2 44204  58.0305  42.4987 0022312 227.7115 316.4816  1.00275932  2501
BEIDOU-2 G8 (C01)       
1 44231U 19027A   25063.87822602 -.00000254  00000+0  00000+0 0  9994
2 44231   1.4270  74.5435 0005873 248.3561 300.5852  1.00268886 21375
BEIDOU-3 IGSO-2 (C39)   
1 44337U 19035A   25063.72026506 -.00000143  00000+0  00000+0 0  9990
2 44337  55.1995 162.9842 0036531 201.3316 174.5566  1.00258087 20965
BEIDOU-3 M24 (C46)      
1 44542U 19061A   25062.86974023  .00000047  00000+0  00000+0 0  9999
2 44542  54.4199 198.5901 0008110  14.8635 345.1221  1.86228876 37032
BEIDOU-3 M23 (C45)      
1 44543U 19061B   25062.49203771  .00000047  00000+0  00000+0 0  9994
2 44543  54.4186 198.5713 0004701  10.0819   9.3426  1.86228979 37034
BEIDOU-3 IGSO-3 (C40)   
1 44709U 19073A   25063.01043608 -.00000164  00000+0  00000+0 0  9992
2 44709  55.6041 285.9594 0041634 182.0197 178.0141  1.00277623 19746
BEIDOU-3 M22 (C44)      
1 44793U 19078A   25063.25027786 -.00000066  00000+0  00000+0 0  9996
2 44793  54.3535 316.3089 0007162  27.0333 333.0541  1.86231867 35894
BEIDOU-3 M21 (C43)      
1 44794U 19078B   25062.30741388 -.00000061  00000+0  00000+0 0  9998
2 44794  54.3278 316.3125 0005199  20.7934 339.2812  1.86227562 35880
BEIDOU-3 M19 (C41)      
1 44864U 19090A   25063.21367892 -.00000006  00000+0  00000+0 0  9994
2 44864  56.1452  78.3744 0020073 285.6552 154.8415  1.86231307 35477
BEIDOU-3 M20 (C42)      
1 44865U 19090B   25063.59636008 -.00000008  00000+0  00000+0 0  9996
2 44865  56.1473  78.3954 0017664 297.2637 129.4843  1.86231253 35461
BEIDOU-3 G2 (C60)       
1 45344U 20017A   25064.58341149 -.00000148  00000+0  00000+0 0  9994
2 45344   2.6966  38.0418 0003084 299.0526 116.5259  1.00272016 18572
BEIDOU-3 G3 (C61)       
1 45807U 20040A   25063.86016979 -.00000360  00000+0  00000+0 0  9990
2 45807   1.3173  61.0866 0003109 311.9923 209.9703  1.00273651 17361
BEIDOU-3 G4 (C62)       
1 56564U 23066A   25063.78866255 -.00000117  00000+0  00000+0 0  9994
2 56564   1.4775 290.2167 0001682 233.5255  82.9837  1.00270930  6680
BEIDOU-3 M28 (C50)      
1 58654U 23207A   25063.46256667 -.00000010  00000+0  00000+0 0  9990
2 58654  55.3325  78.2013 0004867 291.4049  68.5821  1.86231923  8090
BEIDOU-3 M26 (C48)      
1 58655U 23207B   25063.26217870 -.00000009  00000+0  00000+0 0  9990
2 58655  55.3343  78.1941 0005631 277.2131  82.7625  1.86231410  8073
BEIDOU-3 M25 (C47)      
1 61186U 24168B   25064.41746613 -.00000074  00000+0  00000+0 0  9992
2 61186  54.8786 318.4805 0004671 306.5122 226.3557  1.86229804  3056
BEIDOU-3 M27 (C49)      
1 61187U 24168C   25062.63866692 -.00000066  00000+0  00000+0 0  9996
2 61187  54.8757 318.5271 0002879   2.5233 192.6018  1.86229967  3054
